COSMOS 2419 (714)       
1 28915U 05050A   17043.74395765 -.00000013  00000-0  00000+0 0  9990
2 28915  65.4352  70.0461 0015922 345.7573  24.1698  2.13110338 86683
COSMOS 2425 (716)       
1 29670U 06062A   17044.40030759 -.00000032  00000-0  10000-3 0  9992
2 29670  65.5221 309.0370 0022972 345.3169 222.3587  2.13104944 78891
COSMOS 2426 (717)       
1 29671U 06062B   17043.96068479 -.00000030  00000-0  10000-3 0  9991
2 29671  65.5401 309.1396 0015598 164.9892 284.6295  2.13103059 78898
COSMOS 2424 (715)       
1 29672U 06062C   17044.13051436 -.00000031  00000-0  10000-3 0  9998
2 29672  65.5222 309.0564 0014960 163.7695 231.7840  2.13102058 78893
COSMOS 2433 (720)       
1 32275U 07052A   17043.52511053 -.00000011  00000-0  10000-3 0  9997
2 32275  65.4510  69.8294 0004772 271.4332 177.0089  2.13104957 72397
COSMOS 2432 (719)       
1 32276U 07052B   17043.55542760 -.00000011  00000-0  10000-3 0  9990
2 32276  65.4623  69.8969 0012888 327.2728  97.5915  2.13104129 72393
COSMOS 2434 (721)       
1 32393U 07065A   17044.40017875 -.00000032  00000-0  00000+0 0  9991
2 32393  65.1375 308.2441 0003291  86.2497 203.8008  2.13102829 71111
COSMOS 2436 (723)       
1 32395U 07065C   17043.39553127 -.00000027  00000-0  10000-3 0  9994
2 32395  65.1480 308.3239 0016498 358.1348 289.2458  2.13104234 71024
COSMOS 2443 (725)       
1 33379U 08046B   17043.92507046 -.00000015  00000-0  00000+0 0  9997
2 33379  65.3803  69.2091 0016060 188.4045 108.9014  2.13101502 65269
COSMOS 2456 (730)       
1 36111U 09070A   17043.64951138  .00000013  00000-0  00000+0 0  9993
2 36111  64.1807 187.8347 0003299 344.2361 260.5729  2.13102874 55766
COSMOS 2457 (733)       
1 36112U 09070B   17043.54249925  .00000012  00000-0  00000+0 0  9996
2 36112  64.1630 187.7613 0007095 150.1194 141.7388  2.13101562 55766
COSMOS 2458 (734)       
1 36113U 09070C   17043.31674830  .00000010  00000-0  10000-3 0  9992
2 36113  64.1682 187.7764 0002585  54.6551 111.7752  2.13101889 55769
COSMOS 2459 (731)       
1 36400U 10007A   17043.76061594 -.00000014  00000-0  10000-3 0  9994
2 36400  65.3589  68.9423 0028399 348.2938 143.9647  2.13102290 54127
COSMOS 2461 (735)       
1 36401U 10007B   17043.92006486 -.00000015  00000-0  10000-3 0  9993
2 36401  65.3518  68.9164 0004663  52.8697 112.2997  2.13102222 54122
COSMOS 2460 (732)       
1 36402U 10007C   17043.89304058 -.00000015  00000-0  10000-3 0  9996
2 36402  65.3431  68.8906 0002197 285.1147 260.8369  2.13101908 54124
COSMOS 2465 (737)       
1 37138U 10041B   17043.39568661 -.00000028  00000-0  00000+0 0  9997
2 37138  64.7365 308.3299 0033935 172.1030 111.0772  2.13104523 50180
COSMOS 2464 (736)       
1 37139U 10041C   17043.36234317 -.00000028  00000-0  00000+0 0  9993
2 37139  64.7446 308.3288 0024424  10.5098  71.0815  2.13102662 50197
COSMOS 2471 (701K)      
1 37372U 11009A   17043.47137316 -.00000012  00000-0  00000+0 0  9993
2 37372  65.3398  68.8538 0009169 243.5489 112.4243  2.13104990 46383
COSMOS 2474 (742)       
1 37829U 11055A   17044.42393541  .00000021  00000-0  00000+0 0  9990
2 37829  64.5054 188.3203 0006260 243.9571  95.2976  2.13101886 41772
COSMOS 2476 (744)       
1 37867U 11064A   17044.41939057  .00000021  00000-0  00000+0 0  9999
2 37867  64.4842 188.3963 0015408 241.4701 140.1979  2.13101948 41135
COSMOS 2477 (745)       
1 37868U 11064B   17043.99184591  .00000017  00000-0  00000+0 0  9992
2 37868  64.4941 188.4541 0013339 242.5010 350.3758  2.13101779 41070
COSMOS 2475 (743)       
1 37869U 11064C   17043.78580573  .00000015  00000-0  00000+0 0  9998
2 37869  64.5008 188.4505 0018107 273.2615 117.8855  2.13101951 41083
COSMOS 2485 (747)       
1 39155U 13019A   17043.99246525  .00000017  00000-0  00000+0 0  9991
2 39155  64.6535 188.4133 0015913 235.5739 223.6468  2.13101953 29596
COSMOS 2492 (754)       
1 39620U 14012A   17044.02804729 -.00000016  00000-0  10000-3 0  9998
2 39620  65.2324  68.8403 0016422 325.6906 194.6882  2.13103527 22544
COSMOS 2500 (755)       
1 40001U 14032A   17044.49514446 -.00000019  00000-0  00000+0 0  9998
2 40001  65.1723  68.8311 0006955 224.2517 157.7492  2.13102877 20778
COSMOS 2501 (702K)      
1 40315U 14075A   17043.66313253 -.00000032  00000-0  00000+0 0  9999
2 40315  64.4707 309.7046 0013834 212.6248  58.8399  2.13100118 17159
COSMOS 2514 (751)       
1 41330U 16008A   17044.00562413 -.00000016  00000-0  00000+0 0  9990
2 41330  64.9727  69.0229 0010391 227.3941 318.7368  2.13103478  7921
COSMOS 2516 (753)       
1 41554U 16032A   17043.61591122 -.00000031  00000-0  00000+0 0  9997
2 41554  64.6917 309.4364 0010795 230.3863 270.0648  2.13101646  5523
